SL-16 R/B               
1 24298U 96051B   25323.54222226 -.00000028  00000+0  11821-4 0  9993
2 24298  70.7609  48.3841 0018519 290.3368  69.5761 14.12393782506093
ORBVIEW 2 (SEASTAR)     
1 24883U 97037A   25323.42422576  .00000409  00000+0  15863-3 0  9996
2 24883  98.8449 119.9135 0002775  45.1400 315.0010 14.35392357492651
SL-16 R/B               
1 25400U 98043G   25323.57384087  .00000101  00000+0  61207-4 0  9993
2 25400  98.8086 271.2667 0009476 340.0909  19.9900 14.26017428423297
SL-16 R/B               
1 25407U 98045B   25323.52612663 -.00000060  00000+0 -62402-5 0  9996
2 25407  71.0123  53.2426 0008332 209.4945 150.5709 14.16168614411501
ISS (ZARYA)             
1 25544U 98067A   25323.31903918  .00014458  00000+0  26247-3 0  9994
2 25544  51.6333 258.3957 0004144  86.8503 273.2960 15.49817487539229
CZ-4B R/B               
1 25732U 99025C   25323.55812223  .00000111  00000+0  74522-4 0  9993
2 25732  98.6803   5.3528 0036155 302.5523 219.5088 14.18235375372552
OKEAN-O                 
1 25860U 99039A   25323.60186094  .00000871  00000+0  12178-3 0  9997
2 25860  97.9637  19.5006 0001224  66.7670 293.3670 14.80105500418104
SL-16 R/B               
1 25861U 99039B   25323.61924133  .00000733  00000+0  10024-3 0  9998
2 25861  98.0160  17.7654 0013540 253.0950 106.8778 14.81538576420567
DELTA 2 R/B             
1 25876U 99041E   25323.55718241  .00001293  00000+0  24760-3 0  9995
2 25876  51.7633  20.9813 0504881  23.4520 338.8588 14.11319231347474
HELIOS 1B               
1 25977U 99064A   25323.65884933  .00002423  00000+0  27600-3 0  9997
2 25977  98.1756 217.6419 0002510  74.0629 286.0863 14.87149004668904
TERRA                   
1 25994U 99068A   25323.60235953  .00000605  00000+0  13276-3 0  9991
2 25994  97.9782  16.1314 0002822 145.5855  10.6632 14.60914666379006
SL-16 R/B               
1 26070U 00006B   25323.44233423 -.00000150  00000+0 -51939-4 0  9999
2 26070  71.0022 329.6446 0017252 341.2614  18.7872 14.15801375332951
