CCSDS_OMM_VERS = 2.0
CREATION_DATE  = 
ORIGINATOR     = 

OBJECT_NAME    = SL-16 R/B
OBJECT_ID      = 1996-051B
CENTER_NAME    = EARTH
REF_FRAME      = TEME
TIME_SYSTEM    = UTC
MEAN_ELEMENT_THEORY = SGP/SGP4

EPOCH          = 2025-11-19T13:00:48.003264
MEAN_MOTION    = 14.12393782
ECCENTRICITY   = .00185194
INCLINATION    = 70.7609
RA_OF_ASC_NODE = 48.3841
ARG_OF_PERICENTER = 290.3368
MEAN_ANOMALY   = 69.5761

EPHEMERIS_TYPE = 0
CLASSIFICATION_TYPE = U
NORAD_CAT_ID   = 24298
ELEMENT_SET_NO = 999
REV_AT_EPOCH   = 50609
BSTAR          = .11821001E-4
MEAN_MOTION_DOT = -.28E-6
MEAN_MOTION_DDOT = 0

CCSDS_OMM_VERS = 2.0
CREATION_DATE  = 
ORIGINATOR     = 

OBJECT_NAME    = ORBVIEW 2 (SEASTAR)
OBJECT_ID      = 1997-037A
CENTER_NAME    = EARTH
REF_FRAME      = TEME
TIME_SYSTEM    = UTC
MEAN_ELEMENT_THEORY = SGP/SGP4

EPOCH          = 2025-11-19T10:10:53.105664
MEAN_MOTION    = 14.35392357
ECCENTRICITY   = .00027751
INCLINATION    = 98.8449
RA_OF_ASC_NODE = 119.9135
ARG_OF_PERICENTER = 45.1400
MEAN_ANOMALY   = 315.0010

EPHEMERIS_TYPE = 0
CLASSIFICATION_TYPE = U
NORAD_CAT_ID   = 24883
ELEMENT_SET_NO = 999
REV_AT_EPOCH   = 49265
BSTAR          = .15862566E-3
MEAN_MOTION_DOT = .409E-5
MEAN_MOTION_DDOT = 0

CCSDS_OMM_VERS = 2.0
CREATION_DATE  = 
ORIGINATOR     = 

OBJECT_NAME    = SL-16 R/B
OBJECT_ID      = 1998-043G
CENTER_NAME    = EARTH
REF_FRAME      = TEME
TIME_SYSTEM    = UTC
MEAN_ELEMENT_THEORY = SGP/SGP4

EPOCH          = 2025-11-19T13:46:19.851168
MEAN_MOTION    = 14.26017428
ECCENTRICITY   = .00094761
INCLINATION    = 98.8086
RA_OF_ASC_NODE = 271.2667
ARG_OF_PERICENTER = 340.0909
MEAN_ANOMALY   = 19.9900

EPHEMERIS_TYPE = 0
CLASSIFICATION_TYPE = U
NORAD_CAT_ID   = 25400
ELEMENT_SET_NO = 999
REV_AT_EPOCH   = 42329
BSTAR          = .61206826E-4
MEAN_MOTION_DOT = .101E-5
MEAN_MOTION_DDOT = 0

CCSDS_OMM_VERS = 2.0
CREATION_DATE  = 
ORIGINATOR     = 

OBJECT_NAME    = SL-16 R/B
OBJECT_ID      = 1998-045B
CENTER_NAME    = EARTH
REF_FRAME      = TEME
TIME_SYSTEM    = UTC
MEAN_ELEMENT_THEORY = SGP/SGP4

EPOCH          = 2025-11-19T12:37:37.340832
MEAN_MOTION    = 14.16168614
ECCENTRICITY   = .00083322
INCLINATION    = 71.0123
RA_OF_ASC_NODE = 53.2426
ARG_OF_PERICENTER = 209.4945
MEAN_ANOMALY   = 150.5709

EPHEMERIS_TYPE = 0
CLASSIFICATION_TYPE = U
NORAD_CAT_ID   = 25407
ELEMENT_SET_NO = 999
REV_AT_EPOCH   = 41150
BSTAR          = -.6240183E-5
MEAN_MOTION_DOT = -.6E-6
MEAN_MOTION_DDOT = 0

CCSDS_OMM_VERS = 2.0
CREATION_DATE  = 
ORIGINATOR     = 

OBJECT_NAME    = ISS (ZARYA)
OBJECT_ID      = 1998-067A
CENTER_NAME    = EARTH
REF_FRAME      = TEME
TIME_SYSTEM    = UTC
MEAN_ELEMENT_THEORY = SGP/SGP4

EPOCH          = 2025-11-19T07:39:24.985152
MEAN_MOTION    = 15.49817487
ECCENTRICITY   = .00041444
INCLINATION    = 51.6333
RA_OF_ASC_NODE = 258.3957
ARG_OF_PERICENTER = 86.8503
MEAN_ANOMALY   = 273.2960

EPHEMERIS_TYPE = 0
CLASSIFICATION_TYPE = U
NORAD_CAT_ID   = 25544
ELEMENT_SET_NO = 999
REV_AT_EPOCH   = 53922
BSTAR          = .26247255E-3
MEAN_MOTION_DOT = .14458E-3
MEAN_MOTION_DDOT = 0

CCSDS_OMM_VERS = 2.0
CREATION_DATE  = 
ORIGINATOR     = 

OBJECT_NAME    = CZ-4B R/B
OBJECT_ID      = 1999-025C
CENTER_NAME    = EARTH
REF_FRAME      = TEME
TIME_SYSTEM    = UTC
MEAN_ELEMENT_THEORY = SGP/SGP4

EPOCH          = 2025-11-19T13:23:41.760672
MEAN_MOTION    = 14.18235375
ECCENTRICITY   = .00361555
INCLINATION    = 98.6803
RA_OF_ASC_NODE = 5.3528
ARG_OF_PERICENTER = 302.5523
MEAN_ANOMALY   = 219.5088

EPHEMERIS_TYPE = 0
CLASSIFICATION_TYPE = U
NORAD_CAT_ID   = 25732
ELEMENT_SET_NO = 999
REV_AT_EPOCH   = 37255
BSTAR          = .74522067E-4
MEAN_MOTION_DOT = .111E-5
MEAN_MOTION_DDOT = 0

CCSDS_OMM_VERS = 2.0
CREATION_DATE  = 
ORIGINATOR     = 

OBJECT_NAME    = OKEAN-O
OBJECT_ID      = 1999-039A
CENTER_NAME    = EARTH
REF_FRAME      = TEME
TIME_SYSTEM    = UTC
MEAN_ELEMENT_THEORY = SGP/SGP4

EPOCH          = 2025-11-19T14:26:40.785216
MEAN_MOTION    = 14.80105500
ECCENTRICITY   = .00012243
INCLINATION    = 97.9637
RA_OF_ASC_NODE = 19.5006
ARG_OF_PERICENTER = 66.7670
MEAN_ANOMALY   = 293.3670

EPHEMERIS_TYPE = 0
CLASSIFICATION_TYPE = U
NORAD_CAT_ID   = 25860
ELEMENT_SET_NO = 999
REV_AT_EPOCH   = 41810
BSTAR          = .12177522E-3
MEAN_MOTION_DOT = .871E-5
MEAN_MOTION_DDOT = 0

CCSDS_OMM_VERS = 2.0
CREATION_DATE  = 
ORIGINATOR     = 

OBJECT_NAME    = SL-16 R/B
OBJECT_ID      = 1999-039B
CENTER_NAME    = EARTH
REF_FRAME      = TEME
TIME_SYSTEM    = UTC
MEAN_ELEMENT_THEORY = SGP/SGP4

EPOCH          = 2025-11-19T14:51:42.450912
MEAN_MOTION    = 14.81538576
ECCENTRICITY   = .00135408
INCLINATION    = 98.0160
RA_OF_ASC_NODE = 17.7654
ARG_OF_PERICENTER = 253.0950
MEAN_ANOMALY   = 106.8778

EPHEMERIS_TYPE = 0
CLASSIFICATION_TYPE = U
NORAD_CAT_ID   = 25861
ELEMENT_SET_NO = 999
REV_AT_EPOCH   = 42056
BSTAR          = .10024398E-3
MEAN_MOTION_DOT = .733E-5
MEAN_MOTION_DDOT = 0

CCSDS_OMM_VERS = 2.0
CREATION_DATE  = 
ORIGINATOR     = 

OBJECT_NAME    = DELTA 2 R/B
OBJECT_ID      = 1999-041E
CENTER_NAME    = EARTH
REF_FRAME      = TEME
TIME_SYSTEM    = UTC
MEAN_ELEMENT_THEORY = SGP/SGP4

EPOCH          = 2025-11-19T13:22:20.560224
MEAN_MOTION    = 14.11319231
ECCENTRICITY   = .05048818
INCLINATION    = 51.7633
RA_OF_ASC_NODE = 20.9813
ARG_OF_PERICENTER = 23.4520
MEAN_ANOMALY   = 338.8588

EPHEMERIS_TYPE = 0
CLASSIFICATION_TYPE = U
NORAD_CAT_ID   = 25876
ELEMENT_SET_NO = 999
REV_AT_EPOCH   = 34747
BSTAR          = .24759821E-3
MEAN_MOTION_DOT = .1293E-4
MEAN_MOTION_DDOT = 0

CCSDS_OMM_VERS = 2.0
CREATION_DATE  = 
ORIGINATOR     = 

OBJECT_NAME    = HELIOS 1B
OBJECT_ID      = 1999-064A
CENTER_NAME    = EARTH
REF_FRAME      = TEME
TIME_SYSTEM    = UTC
MEAN_ELEMENT_THEORY = SGP/SGP4

EPOCH          = 2025-11-19T15:48:44.582112
MEAN_MOTION    = 14.87149004
ECCENTRICITY   = .00025108
INCLINATION    = 98.1756
RA_OF_ASC_NODE = 217.6419
ARG_OF_PERICENTER = 74.0629
MEAN_ANOMALY   = 286.0863

EPHEMERIS_TYPE = 0
CLASSIFICATION_TYPE = U
NORAD_CAT_ID   = 25977
ELEMENT_SET_NO = 999
REV_AT_EPOCH   = 66890
BSTAR          = .2759996E-3
MEAN_MOTION_DOT = .2423E-4
MEAN_MOTION_DDOT = 0

CCSDS_OMM_VERS = 2.0
CREATION_DATE  = 
ORIGINATOR     = 

OBJECT_NAME    = TERRA
OBJECT_ID      = 1999-068A
CENTER_NAME    = EARTH
REF_FRAME      = TEME
TIME_SYSTEM    = UTC
MEAN_ELEMENT_THEORY = SGP/SGP4

EPOCH          = 2025-11-19T14:27:23.863392
MEAN_MOTION    = 14.60914666
ECCENTRICITY   = .00028227
INCLINATION    = 97.9782
RA_OF_ASC_NODE = 16.1314
ARG_OF_PERICENTER = 145.5855
MEAN_ANOMALY   = 10.6632

EPHEMERIS_TYPE = 0
CLASSIFICATION_TYPE = U
NORAD_CAT_ID   = 25994
ELEMENT_SET_NO = 999
REV_AT_EPOCH   = 37900
BSTAR          = .13276256E-3
MEAN_MOTION_DOT = .605E-5
MEAN_MOTION_DDOT = 0

CCSDS_OMM_VERS = 2.0
CREATION_DATE  = 
ORIGINATOR     = 

OBJECT_NAME    = SL-16 R/B
OBJECT_ID      = 2000-006B
CENTER_NAME    = EARTH
REF_FRAME      = TEME
TIME_SYSTEM    = UTC
MEAN_ELEMENT_THEORY = SGP/SGP4

EPOCH          = 2025-11-19T10:36:57.677472
MEAN_MOTION    = 14.15801375
ECCENTRICITY   = .00172528
INCLINATION    = 71.0022
RA_OF_ASC_NODE = 329.6446
ARG_OF_PERICENTER = 341.2614
MEAN_ANOMALY   = 18.7872

EPHEMERIS_TYPE = 0
CLASSIFICATION_TYPE = U
NORAD_CAT_ID   = 26070
ELEMENT_SET_NO = 999
REV_AT_EPOCH   = 33295
BSTAR          = -.51938801E-4
MEAN_MOTION_DOT = -.15E-5
MEAN_MOTION_DDOT = 0

